{
  "norad_id": 68656,
  "name": "GUOWANG GROUP 21 OBJECT A",
  "history": [
    {
      "epoch": "2026-04-09T21:05:57.117984Z",
      "apogee_km": 958.1500116365432,
      "perigee_km": 947.5889636904149,
      "latitude_deg": 7.160128367294446e-05,
      "longitude_deg": -86.59408512656675,
      "height_km": 960.1916309120379,
      "semi_major_axis_km": 7331.006487663479,
      "eccentricity": 0.0007203,
      "inclination_deg": 86.493,
      "raan_deg": 68.0149,
      "arg_perigee_deg": 214.7797,
      "mean_anomaly_deg": 145.2901,
      "mean_motion_rev_day": 13.83112022
    },
    {
      "epoch": "2026-04-10T12:43:31.996416Z",
      "apogee_km": 958.1285131991363,
      "perigee_km": 947.6304975634303,
      "latitude_deg": 5.622335925688757e-05,
      "longitude_deg": 38.125933917978884,
      "height_km": 960.2378767990392,
      "semi_major_axis_km": 7331.016505381283,
      "eccentricity": 0.000716,
      "inclination_deg": 86.4933,
      "raan_deg": 67.772,
      "arg_perigee_deg": 213.5702,
      "mean_anomaly_deg": 146.5013,
      "mean_motion_rev_day": 13.83109187
    }
  ]
}